{
  "norad_id": 64327,
  "name": "STARLINK-11674 [DTC]",
  "history": [
    {
      "epoch": "2026-04-14T15:38:07.243008Z",
      "apogee_km": 357.6905108042856,
      "perigee_km": 355.0829032249285,
      "latitude_deg": -6.88494455222429e-06,
      "longitude_deg": 94.78687996924576,
      "height_km": 356.30038371711066,
      "semi_major_axis_km": 6734.523707014607,
      "eccentricity": 0.0001936,
      "inclination_deg": 43.0015,
      "raan_deg": 172.1419,
      "arg_perigee_deg": 263.8064,
      "mean_anomaly_deg": 96.2583,
      "mean_motion_rev_day": 15.70877911
    },
    {
      "epoch": "2026-04-15T20:37:45.436224Z",
      "apogee_km": 357.9401687953823,
      "perigee_km": 354.41542842978834,
      "latitude_deg": -2.454067149140838e-05,
      "longitude_deg": 11.404486078481261,
      "height_km": 355.40578566957396,
      "semi_major_axis_km": 6734.314798612585,
      "eccentricity": 0.0002617,
      "inclination_deg": 42.9999,
      "raan_deg": 164.8594,
      "arg_perigee_deg": 288.0254,
      "mean_anomaly_deg": 72.0328,
      "mean_motion_rev_day": 15.70951008
    },
    {
      "epoch": "2026-04-16T14:56:29.526144Z",
      "apogee_km": 357.4599715949653,
      "perigee_km": 355.80995246426846,
      "latitude_deg": 4.507108478293007e-06,
      "longitude_deg": 91.37085324241293,
      "height_km": 356.6187069103736,
      "semi_major_axis_km": 6734.771962029617,
      "eccentricity": 0.0001225,
      "inclination_deg": 43.0003,
      "raan_deg": 160.2615,
      "arg_perigee_deg": 255.1477,
      "mean_anomaly_deg": 104.9255,
      "mean_motion_rev_day": 15.70791054
    },
    {
      "epoch": "2026-04-17T13:49:53.370624Z",
      "apogee_km": 356.7386737961633,
      "perigee_km": 355.97457814936024,
      "latitude_deg": 5.126368524719276e-06,
      "longitude_deg": 101.33174616120334,
      "height_km": 356.20480057412294,
      "semi_major_axis_km": 6734.493625972761,
      "eccentricity": 5.673e-05,
      "inclination_deg": 42.9995,
      "raan_deg": 154.5118,
      "arg_perigee_deg": 258.4414,
      "mean_anomaly_deg": 101.639,
      "mean_motion_rev_day": 15.70888436
    },
    {
      "epoch": "2026-04-18T14:14:49.350336Z",
      "apogee_km": 357.0292671362113,
      "perigee_km": 355.64869955962513,
      "latitude_deg": -2.6278875670482785e-06,
      "longitude_deg": 87.96307857242532,
      "height_km": 355.87752813627753,
      "semi_major_axis_km": 6734.475983347918,
      "eccentricity": 0.0001025,
      "inclination_deg": 43.0003,
      "raan_deg": 148.3791,
      "arg_perigee_deg": 289.7793,
      "mean_anomaly_deg": 70.2964,
      "mean_motion_rev_day": 15.70894609
    },
    {
      "epoch": "2026-04-19T19:14:29.071104Z",
      "apogee_km": 356.6532486765145,
      "perigee_km": 356.03098280622,
      "latitude_deg": -1.7924643668089802e-05,
      "longitude_deg": 4.57610171309738,
      "height_km": 356.1456239130976,
      "semi_major_axis_km": 6734.4791157413665,
      "eccentricity": 4.62e-05,
      "inclination_deg": 43.0,
      "raan_deg": 141.0984,
      "arg_perigee_deg": 96.0603,
      "mean_anomaly_deg": 264.0317,
      "mean_motion_rev_day": 15.70893513
    },
    {
      "epoch": "2026-04-20T12:01:37.706304Z",
      "apogee_km": 358.015327936585,
      "perigee_km": 354.7209427144862,
      "latitude_deg": 3.3692321559354903e-05,
      "longitude_deg": 107.8851098751072,
      "height_km": 356.09010777843383,
      "semi_major_axis_km": 6734.505135325535,
      "eccentricity": 0.00024459,
      "inclination_deg": 43.0034,
      "raan_deg": 136.8827,
      "arg_perigee_deg": 271.7971,
      "mean_anomaly_deg": 88.2617,
      "mean_motion_rev_day": 15.70884409
    },
    {
      "epoch": "2026-04-21T12:26:33.443232Z",
      "apogee_km": 358.32985021366585,
      "perigee_km": 354.14605243140795,
      "latitude_deg": 8.547358318345923e-06,
      "longitude_deg": 94.5168351688047,
      "height_km": 356.68671715083406,
      "semi_major_axis_km": 6734.374951322537,
      "eccentricity": 0.00031063,
      "inclination_deg": 43.0029,
      "raan_deg": 130.7494,
      "arg_perigee_deg": 251.176,
      "mean_anomaly_deg": 108.8771,
      "mean_motion_rev_day": 15.7092996
    }
  ]
}